METEOR 2-16             
1 18312U 87068A   99363.16520997  .00000130  00000-0  10345-3 0  8385
2 18312  82.5558  48.8375 0011676 194.2936 165.7884 13.84196640624621
METEOR 2-17             
1 18820U 88005A   00003.33102956  .00000044  00000-0  25868-4 0   916
2 18820  82.5418  96.7545 0015214 248.2582 111.6959 13.84851843602778
METEOR 3-2              
1 19336U 88064A   00003.38998356  .00000051  00000-0  10000-3 0  8003
2 19336  82.5391 329.8915 0016023 238.4427 121.5135 13.17009269549960
METEOR 2-18             
1 19851U 89018A   99364.42831971  .00000179  00000-0  14520-3 0  7907
2 19851  82.5179 331.0831 0012124 316.7620  43.2589 13.85013423547526
METEOR 3-3              
1 20305U 89086A   00002.84908009  .00000044  00000-0  10000-3 0  4628
2 20305  82.5521 309.4554 0007204  38.3501 321.8292 13.04453093486993
METEOR 2-19             
1 20670U 90057A   00003.14965920  .00000016  00000-0  80171-6 0  1234
2 20670  82.5459  39.3390 0014745 217.2263 142.7875 13.84195449480881
METEOR 2-20             
1 20826U 90086A   00002.96050354  .00000120  00000-0  95293-4 0  3084
2 20826  82.5228 333.9535 0014218 124.4068 235.8434 13.83720801467895
METEOR 3-4              
1 21232U 91030A   99363.02028387  .00000051  00000-0  10000-3 0  2154
2 21232  82.5404 180.8810 0013110 177.0706 183.0494 13.16498488417255
METEOR 3-5              
1 21655U 91056A   00009.48452658  .00000051  00000-0  10000-3 0  1443
2 21655  82.5570 121.3833 0013723 155.8377 204.3287 13.16889670403946
METEOR 2-21             
1 22782U 93055A   00001.09401754  .00000116  00000-0  92266-4 0  7821
2 22782  82.5503  42.4216 0021803 318.7257  41.2247 13.83200554319859
METEOR 3-6              
1 22969U 94003A   00003.21759627  .00000051  00000-0  10000-3 0  5767
2 22969  82.5619  66.7619 0014036 243.3648 116.6037 13.16787482285488

